#aV2024 10 15  0  0  0.00000000     288 DD+AD WGS84 FIT  NGA
## 2336 172800.00000000   300.00000000 60598 0.0000000000000
+   31     2  3  4  5  6  7  8  9 10 11 12 13 14 15 16 17 18
+         19 20 21 22 23 24 25 26 27 28 29 30 31 32  0  0  0
+          0  0  0  0  0  0  0  0  0  0  0  0  0  0  0  0  0
+          0  0  0  0  0  0  0  0  0  0  0  0  0  0  0  0  0
+          0  0  0  0  0  0  0  0  0  0  0  0  0  0  0  0  0
++         2  2  2  2  2  2  2  2  2  2  2  2  2  2  2  2  2
++         2  2  2  2  2  2  2  2  2  2  2  2  2  2  0  0  0
++         0  0  0  0  0  0  0  0  0  0  0  0  0  0  0  0  0
++         0  0  0  0  0  0  0  0  0  0  0  0  0  0  0  0  0
++         0  0  0  0  0  0  0  0  0  0  0  0  0  0  0  0  0
%c cc cc ccc ccc cccc cccc cccc cccc ccccc ccccc ccccc ccccc
%c cc cc ccc ccc cccc cccc cccc cccc ccccc ccccc ccccc ccccc
%f  0.0000000  0.000000000  0.00000000000  0.000000000000000
%f  0.0000000  0.000000000  0.00000000000  0.000000000000000
%i    0    0    0    0      0      0      0      0         0
%i    0    0    0    0      0      0      0      0         0
/*      NGA, ST. LOUIS,MO.                                  
/*   EPHEMERIS COMPUTED FROM 2 DAYS OF DATA                 
/*   EPOCHA v9 SMOOTHER                                     
/*   G2296 IERS2010 SATIGS SATAPC                           
*  2024 10 15 12 40  0.00000000
P  2 -12340.545380  21265.612118  -9118.170683   -336.565265                    
V  2 -10675.176324   6788.172654  29137.571742      0.082593                    
P  3  -1470.022470  14989.447821 -22053.361289    570.931608                    
V  3 -25919.763443  -9236.690809  -4479.842561      0.118413                    
P  4  -1348.062817  25454.595069  -7172.997924    462.108951                    
V  4  -3924.966263  -8687.693709 -30178.224211      0.067836                    
P  5  17845.337643  -7396.338546  18076.682589   -189.865699                    
V  5  21843.431293   8126.118493 -17994.952852     -0.012232                    
P  6  19126.427065    -15.449358 -18408.103252    -40.299821                    
V  6 -17485.370735  15594.713358 -18007.988112     -0.276236                    
P  7   3741.973396  16432.632086  20959.724916    -27.491240                    
V  7 -20198.814469  15697.934750  -9383.544649      0.033761                    
P  8  -8225.301265  18544.002431  16793.419809    385.008136                    
V  8  -6849.237891 -20766.584190  19875.016763      0.115610                    
P  9   6996.003796  25461.147735   2425.828578    399.755300                    
V  9  -2209.541600   3724.308275 -31563.362973      0.165300                    
P 10 -24382.317422 -10716.950064   2670.383330   -159.398508                    
V 10   3476.373679   -545.058797  31848.768802     -0.134171                    
P 11  22840.282296 -11639.318096  -6781.726634   -744.078809                    
V 11  -5305.184144   7322.010483 -30341.958659     -0.029506                    
P 12   6632.718286 -13823.464833 -21968.592352   -545.294625                    
V 12  24895.114190  11012.045367    638.683786     -0.026546                    
P 13  13307.686489 -10705.364835  20043.871939    681.560297                    
V 13   2054.207252  25946.812949  12582.117017      0.017923                    
P 14  22436.744717  13199.341439   5902.472503    518.071815                    
V 14  -7986.218310    135.156400  30061.931635      0.083972                    
P 15   5485.964455 -20003.085672  15980.382416    216.021240                    
V 15   9495.732672  19351.024636  20461.546455      0.044616                    
P 16 -21648.247644   1752.124535  15243.301557   -154.278398                    
V 16 -17219.969601  -9928.515634 -22366.222945      0.099838                    
P 17  13103.341137  16031.057714 -16109.677988    594.626879                    
V 17    520.394417  21392.497230  21342.178701     -0.129597                    
P 18  -4230.622478 -15222.969468  21338.271585   -658.027508                    
V 18  21395.450442 -16538.603068  -7786.187485     -0.013320                    
P 19  15057.884841   7013.586731 -20962.899549    550.790166                    
V 19   1358.330842  26139.388501   9371.345679      0.046788                    
P 20  24774.280159  -2389.198191   9128.317050    369.650985                    
V 20  10922.172929   4671.323218 -28793.662772     -0.003613                    
P 21 -16095.272908  19992.648491  -3618.931956     99.714042                    
V 21  -6327.298433   1122.082246  32018.768456     -0.008121                    
P 22  24371.849387   9869.754252  -1881.365541    -71.235646                    
V 22   1318.864130   4040.971187  31829.028737     -0.033315                    
P 23 -16176.262357 -15509.078264  14462.307188    342.149575                    
V 23  17731.578349   4279.880028  24255.775903      0.081686                    
P 24  12723.109774 -21761.382422  -8127.912826   -484.682151                    
V 24   9473.820241  -4567.148596  29066.117498      0.012241                    
P 25  -7942.782368 -17126.265150 -19129.683780    499.509948                    
V 25  22694.950551   6293.165795 -15075.471364     -0.001258                    
P 26 -26140.790186  -3710.346635   4229.555712     55.147987                    
V 26  -4478.996044  -4698.622858 -30216.404277     -0.094204                    
P 27 -13647.005422   7554.206658  21147.288134    -34.564318                    
V 27  -5895.839885 -26991.046441   6174.623335     -0.002073                    
P 28 -18117.162706  -1847.111155 -19350.232892   -446.646124                    
V 28  17375.736816 -17369.428130 -14617.454363     -0.128681                    
P 29  -3373.049796 -26257.750633    967.516990   -571.079366                    
V 29   2523.548725  -1548.007529 -31984.626386      0.026614                    
P 30  13456.442877   9072.183311  21205.123541   -301.928521                    
V 30 -20031.369060  17571.083759   4964.757867      0.074676                    
P 31 -22891.265193   8078.124161 -11443.204168   -223.350859                    
V 31   9529.502765 -10563.968940 -26714.344890      0.005648                    
P 32 -14780.261551 -13748.738935 -17150.921776   -586.439719                    
V 32  -2535.655952 -22031.879247  19398.617591      0.044510                    
EOF
